start=new Date('2023-06-15T00:00:00.000Z').valueOf();
sats=[{"DECAY_DATE":null,"GP_ID":"233920837","OBJECT_ID":"2023-042AH","CENTER_NAME":"EARTH","TLE_LINE1":"1 56017U 23042AH  23165.91667824 -.00025157  00000-0 -17595-2 0  9991","PERIOD":"95.713","TIME_SYSTEM":"UTC","OBJECT_NAME":"STARLINK-5934","PERIAPSIS":"552.241","RA_OF_ASC_NODE":"70.7028","SITE":"AFETR","REF_FRAME":"TEME","EPHEMERIS_TYPE":"0","CLASSIFICATION_TYPE":"U","ELEMENT_SET_NO":"999","OBJECT_TYPE":"PAYLOAD","LAUNCH_DATE":"2023-03-24","INCLINATION":"42.9989","NORAD_CAT_ID":"56017","RCS_SIZE":"LARGE","REV_AT_EPOCH":"1315","COUNTRY_CODE":"US","MEAN_MOTION":"15.04490006","APOAPSIS":"553.906","FILE":"3933099","ARG_OF_PERICENTER":"267.5777","EPOCH":"2023-06-14T22:00:00.999936","MEAN_ANOMALY":"52.1495","MEAN_MOTION_DDOT":"0.0000000000000","BSTAR":"-0.00175950000000","ECCENTRICITY":"0.00012010","MEAN_MOTION_DOT":"-0.00025157","SEMIMAJOR_AXIS":"6931.209","TLE_LINE2":"2 56017  42.9989  70.7028 0001201 267.5777  52.1495 15.04490006 13156","MEAN_ELEMENT_THEORY":"SGP4"},{"MEAN_ANOMALY":"106.1818","MEAN_MOTION_DDOT":"0.0000000000000","SEMIMAJOR_AXIS":"6931.149","MEAN_MOTION_DOT":"-0.00061826","MEAN_ELEMENT_THEORY":"SGP4","TLE_LINE2":"2 56018  42.9992  70.5710 0001689 268.8082 106.1818 15.04509298  1307","ECCENTRICITY":"0.00016890","BSTAR":"-0.00436570000000","NORAD_CAT_ID":"56018","RCS_SIZE":"LARGE","REV_AT_EPOCH":"130","EPOCH":"2023-06-14T22:00:00.999936","ARG_OF_PERICENTER":"268.8082","COUNTRY_CODE":"US","APOAPSIS":"554.185","FILE":"3933215","MEAN_MOTION":"15.04509298","SITE":"AFETR","RA_OF_ASC_NODE":"70.5710","OBJECT_NAME":"STARLINK-5945","TIME_SYSTEM":"UTC","PERIAPSIS":"551.844","ELEMENT_SET_NO":"999","CLASSIFICATION_TYPE":"U","OBJECT_TYPE":"PAYLOAD","LAUNCH_DATE":"2023-03-24","INCLINATION":"42.9992","REF_FRAME":"TEME","EPHEMERIS_TYPE":"0","TLE_LINE1":"1 56018U 23042AJ  23165.91667824 -.00061826  00000-0 -43657-2 0  9993","PERIOD":"95.712","DECAY_DATE":null,"CENTER_NAME":"EARTH","OBJECT_ID":"2023-042AJ","GP_ID":"233949136"},{"MEAN_MOTION_DOT":"-0.00029435","SEMIMAJOR_AXIS":"6931.183","TLE_LINE2":"2 56019  43.0000  70.7525 0001075 258.6310  40.3735 15.04498339 13152","MEAN_ELEMENT_THEORY":"SGP4","BSTAR":"-0.00206200000000","ECCENTRICITY":"0.00010750","MEAN_ANOMALY":"40.3735","MEAN_MOTION_DDOT":"0.0000000000000","ARG_OF_PERICENTER":"258.6310","EPOCH":"2023-06-14T22:00:00.999936","COUNTRY_CODE":"US","MEAN_MOTION":"15.04498339","FILE":"3933021","APOAPSIS":"553.793","RCS_SIZE":"LARGE","NORAD_CAT_ID":"56019","REV_AT_EPOCH":"1315","CLASSIFICATION_TYPE":"U","ELEMENT_SET_NO":"999","OBJECT_TYPE":"PAYLOAD","LAUNCH_DATE":"2023-03-24","INCLINATION":"43.0000","REF_FRAME":"TEME","EPHEMERIS_TYPE":"0","SITE":"AFETR","RA_OF_ASC_NODE":"70.7525","TIME_SYSTEM":"UTC","OBJECT_NAME":"STARLINK-5949","PERIAPSIS":"552.303","TLE_LINE1":"1 56019U 23042AK  23165.91667824 -.00029435  00000-0 -20620-2 0  9999","PERIOD":"95.713","DECAY_DATE":null,"GP_ID":"233919706","OBJECT_ID":"2023-042AK","CENTER_NAME":"EARTH"},{"MEAN_MOTION_DDOT":"0.0000000000000","MEAN_ANOMALY":"95.3536","BSTAR":"-0.00127800000000","ECCENTRICITY":"0.00010660","TLE_LINE2":"2 56020  42.9992  70.6119 0001066 262.5041  95.3536 15.04478278  1296","MEAN_ELEMENT_THEORY":"SGP4","MEAN_MOTION_DOT":"-0.00018341","SEMIMAJOR_AXIS":"6931.245","REV_AT_EPOCH":"129","RCS_SIZE":"LARGE","NORAD_CAT_ID":"56020","MEAN_MOTION":"15.04478278","APOAPSIS":"553.848","FILE":"3933215","COUNTRY_CODE":"US","ARG_OF_PERICENTER":"262.5041","EPOCH":"2023-06-14T22:00:00.999936","PERIAPSIS":"552.371","TIME_SYSTEM":"UTC","OBJECT_NAME":"STARLINK-5912","RA_OF_ASC_NODE":"70.6119","SITE":"AFETR","EPHEMERIS_TYPE":"0","REF_FRAME":"TEME","INCLINATION":"42.9992","LAUNCH_DATE":"2023-03-24","OBJECT_TYPE":"PAYLOAD","CLASSIFICATION_TYPE":"U","ELEMENT_SET_NO":"999","GP_ID":"233950138","OBJECT_ID":"2023-042AL","CENTER_NAME":"EARTH","DECAY_DATE":null,"PERIOD":"95.714","TLE_LINE1":"1 56020U 23042AL  23165.91667824 -.00018341  00000-0 -12780-2 0  9993"},{"ARG_OF_PERICENTER":"262.4748","EPOCH":"2023-06-14T22:00:00.999936","COUNTRY_CODE":"US","MEAN_MOTION":"15.04495545","FILE":"3933215","APOAPSIS":"553.949","RCS_SIZE":"LARGE","NORAD_CAT_ID":"56021","REV_AT_EPOCH":"130","MEAN_MOTION_DOT":"-0.00032587","SEMIMAJOR_AXIS":"6931.192","TLE_LINE2":"2 56021  42.9992  70.6616 0001287 262.4748  74.4877 15.04495545  1301","MEAN_ELEMENT_THEORY":"SGP4","BSTAR":"-0.00228550000000","ECCENTRICITY":"0.00012870","MEAN_ANOMALY":"74.4877","MEAN_MOTION_DDOT":"0.0000000000000","TLE_LINE1":"1 56021U 23042AM  23165.91667824 -.00032587  00000-0 -22855-2 0  9996","PERIOD":"95.713","DECAY_DATE":null,"GP_ID":"233949887","OBJECT_ID":"2023-042AM","CENTER_NAME":"EARTH","ELEMENT_SET_NO":"999","CLASSIFICATION_TYPE":"U","LAUNCH_DATE":"2023-03-24","INCLINATION":"42.9992","OBJECT_TYPE":"PAYLOAD","REF_FRAME":"TEME","EPHEMERIS_TYPE":"0","RA_OF_ASC_NODE":"70.6616","SITE":"AFETR","TIME_SYSTEM":"UTC","OBJECT_NAME":"STARLINK-5907","PERIAPSIS":"552.165"},{"PERIOD":"95.674","TLE_LINE1":"1 56022U 23042AN  23165.91667824 -.00787147  00000-0 -58196-1 0  9992","GP_ID":"233948636","OBJECT_ID":"2023-042AN","CENTER_NAME":"EARTH","DECAY_DATE":null,"LAUNCH_DATE":"2023-03-24","OBJECT_TYPE":"PAYLOAD","INCLINATION":"42.9987","ELEMENT_SET_NO":"999","CLASSIFICATION_TYPE":"U","EPHEMERIS_TYPE":"0","REF_FRAME":"TEME","RA_OF_ASC_NODE":"70.3399","SITE":"AFETR","PERIAPSIS":"550.356","TIME_SYSTEM":"UTC","OBJECT_NAME":"STARLINK-5783","ARG_OF_PERICENTER":"270.0103","EPOCH":"2023-06-14T22:00:00.999936","MEAN_MOTION":"15.05114175","FILE":"3933215","APOAPSIS":"551.959","COUNTRY_CODE":"US","REV_AT_EPOCH":"130","RCS_SIZE":"LARGE","NORAD_CAT_ID":"56022","TLE_LINE2":"2 56022  42.9987  70.3399 0001157 270.0103 201.6441 15.05114175  1306","MEAN_ELEMENT_THEORY":"SGP4","MEAN_MOTION_DOT":"-0.00787147","SEMIMAJOR_AXIS":"6929.292","BSTAR":"-0.05819600000000","ECCENTRICITY":"0.00011570","MEAN_MOTION_DDOT":"0.0000000000000","MEAN_ANOMALY":"201.6441"},{"MEAN_MOTION_DDOT":"0.0000000000000","MEAN_ANOMALY":"145.3593","BSTAR":"0.00036854000000","ECCENTRICITY":"0.00008520","TLE_LINE2":"2 56023  42.9988  70.4758 0000852 269.4450 145.3593 15.04443974 13155","MEAN_ELEMENT_THEORY":"SGP4","MEAN_MOTION_DOT":"0.00005035","SEMIMAJOR_AXIS":"6931.350","REV_AT_EPOCH":"1315","NORAD_CAT_ID":"56023","RCS_SIZE":"LARGE","MEAN_MOTION":"15.04443974","APOAPSIS":"553.806","FILE":"3933021","COUNTRY_CODE":"US","ARG_OF_PERICENTER":"269.4450","EPOCH":"2023-06-14T22:00:00.999936","PERIAPSIS":"552.624","TIME_SYSTEM":"UTC","OBJECT_NAME":"STARLINK-5771","RA_OF_ASC_NODE":"70.4758","SITE":"AFETR","EPHEMERIS_TYPE":"0","REF_FRAME":"TEME","OBJECT_TYPE":"PAYLOAD","LAUNCH_DATE":"2023-03-24","INCLINATION":"42.9988","ELEMENT_SET_NO":"999","CLASSIFICATION_TYPE":"U","GP_ID":"233919204","OBJECT_ID":"2023-042AP","CENTER_NAME":"EARTH","DECAY_DATE":null,"PERIOD":"95.716","TLE_LINE1":"1 56023U 23042AP  23165.91667824  .00005035  00000-0  36854-3 0  9999"},{"TLE_LINE1":"1 56024U 23042AQ  23165.91667824 -.00928944  00000-0 -68246-1 0  9993","PERIOD":"95.630","DECAY_DATE":null,"CENTER_NAME":"EARTH","GP_ID":"233949638","OBJECT_ID":"2023-042AQ","CLASSIFICATION_TYPE":"U","ELEMENT_SET_NO":"999","OBJECT_TYPE":"PAYLOAD","LAUNCH_DATE":"2023-03-24","INCLINATION":"42.9987","REF_FRAME":"TEME","EPHEMERIS_TYPE":"0","SITE":"AFETR","RA_OF_ASC_NODE":"70.2124","OBJECT_NAME":"STARLINK-5772","TIME_SYSTEM":"UTC","PERIAPSIS":"548.337","EPOCH":"2023-06-14T22:00:00.999936","ARG_OF_PERICENTER":"269.6769","COUNTRY_CODE":"US","FILE":"3933215","APOAPSIS":"549.742","MEAN_MOTION":"15.05804470","NORAD_CAT_ID":"56024","RCS_SIZE":"LARGE","REV_AT_EPOCH":"130","SEMIMAJOR_AXIS":"6927.174","MEAN_MOTION_DOT":"-0.00928944","MEAN_ELEMENT_THEORY":"SGP4","TLE_LINE2":"2 56024  42.9987  70.2124 0001014 269.6769 255.2904 15.05804470  1300","ECCENTRICITY":"0.00010140","BSTAR":"-0.06824600000000","MEAN_ANOMALY":"255.2904","MEAN_MOTION_DDOT":"0.0000000000000"},{"MEAN_MOTION":"15.04522742","APOAPSIS":"553.767","FILE":"3933084","COUNTRY_CODE":"US","ARG_OF_PERICENTER":"273.2033","EPOCH":"2023-06-14T22:00:00.999936","REV_AT_EPOCH":"1315","RCS_SIZE":"LARGE","NORAD_CAT_ID":"56025","BSTAR":"-0.00833820000000","ECCENTRICITY":"0.00011460","TLE_LINE2":"2 56025  42.9989  70.4360 0001146 273.2033 158.2561 15.04522742 13153","MEAN_ELEMENT_THEORY":"SGP4","MEAN_MOTION_DOT":"-0.00117019","SEMIMAJOR_AXIS":"6931.108","MEAN_MOTION_DDOT":"0.0000000000000","MEAN_ANOMALY":"158.2561","GP_ID":"233921115","OBJECT_ID":"2023-042AR","CENTER_NAME":"EARTH","DECAY_DATE":null,"PERIOD":"95.711","TLE_LINE1":"1 56025U 23042AR  23165.91667824 -.00117019  00000-0 -83382-2 0  9996","EPHEMERIS_TYPE":"0","REF_FRAME":"TEME","INCLINATION":"42.9989","LAUNCH_DATE":"2023-03-24","OBJECT_TYPE":"PAYLOAD","CLASSIFICATION_TYPE":"U","ELEMENT_SET_NO":"999","PERIAPSIS":"552.179","TIME_SYSTEM":"UTC","OBJECT_NAME":"STARLINK-5766","SITE":"AFETR","RA_OF_ASC_NODE":"70.4360"},{"REF_FRAME":"TEME","EPHEMERIS_TYPE":"0","ELEMENT_SET_NO":"999","CLASSIFICATION_TYPE":"U","OBJECT_TYPE":"PAYLOAD","LAUNCH_DATE":"2023-03-24","INCLINATION":"42.9985","OBJECT_NAME":"STARLINK-5770","TIME_SYSTEM":"UTC","PERIAPSIS":"549.581","SITE":"AFETR","RA_OF_ASC_NODE":"70.2948","DECAY_DATE":null,"CENTER_NAME":"EARTH","GP_ID":"233949137","OBJECT_ID":"2023-042AS","TLE_LINE1":"1 56026U 23042AS  23165.91667824 -.00926795  00000-0 -68836-1 0  9992","PERIOD":"95.656","ECCENTRICITY":"0.00010330","BSTAR":"-0.06883600000000","SEMIMAJOR_AXIS":"6928.432","MEAN_MOTION_DOT":"-0.00926795","MEAN_ELEMENT_THEORY":"SGP4","TLE_LINE2":"2 56026  42.9985  70.2948 0001033 268.9670 221.5882 15.05394572  1306","MEAN_ANOMALY":"221.5882","MEAN_MOTION_DDOT":"0.0000000000000","COUNTRY_CODE":"US","APOAPSIS":"551.012","FILE":"3933215","MEAN_MOTION":"15.05394572","EPOCH":"2023-06-14T22:00:00.999936","ARG_OF_PERICENTER":"268.9670","NORAD_CAT_ID":"56026","RCS_SIZE":"LARGE","REV_AT_EPOCH":"130"}];
